ONEWEB-0444             
1 51638U 22012S   24070.61715519 -.00000610  00000+0 -17845-2 0  9993
2 51638  87.8966 200.8952 0001730  97.7648 262.3676 13.10372670100820
ONEWEB-0445             
1 51639U 22012T   24070.63829324  .00000125  00000+0  32230-3 0  9991
2 51639  87.8968 200.8678 0001768 115.4418 244.6892 13.10377079100834
ONEWEB-0446             
1 51640U 22012U   24070.61556057  .00000213  00000+0  57455-3 0  9995
2 51640  87.8969 200.8878 0001687 117.4694 242.6605 13.10369706100813
ONEWEB-0448             
1 51641U 22012V   24070.62040252 -.00000581  00000+0 -16994-2 0  9994
2 51641  87.8973 200.8879 0001756  98.3940 261.7386 13.10373241100781
ONEWEB-0449             
1 51642U 22012W   24070.62527694 -.00000715  00000+0 -20848-2 0  9997
2 51642  87.8967 200.8875 0002017 105.9826 254.1524 13.10374899100791
ONEWEB-0451             
1 51643U 22012X   24070.51689257 -.00000012  00000+0 -63430-4 0  9996
2 51643  87.9259 170.7042 0001972 100.9053 259.2300 13.17647900104531
ONEWEB-0452             
1 51644U 22012Y   24070.51530352  .00000011  00000+0 -39619-5 0  9999
2 51644  87.9265 170.7384 0002294 102.6185 257.5203 13.17651010104542
ONEWEB-0455             
1 51645U 22012Z   24070.43730129  .00000371  00000+0  15775-3 0  9998
2 51645  87.5362 145.7705 0015117 312.3217  47.6692 14.22751429108265
